NOAA 2 (ITOS-D)
1  6235U 72082A   23049.77077049 -.00000017  00000-0  18238-3 0  9998
2  6235 101.9830  38.7903 0003935 327.4674 206.3569 12.53157847303058
